PROGRESS-MS 32          
1 65586U 25204A   25338.09188027  .00015824  00000+0  29177-3 0  9997
2 65586  51.6302 185.2932 0003628 200.9086 159.1754 15.49293095   271
CYGNUS NG-23            
1 65616U 25208A   25338.09188027  .00015824  00000+0  29177-3 0  9995
2 65616  51.6302 185.2932 0003628 200.9086 159.1754 15.49293095   220
DRAGONFLY               
1 65729U 98067XH  25338.08279218  .00206221  00000+0  17455-2 0  9993
2 65729  51.6245 179.9790 0006546 222.4541 137.5950 15.68505337 11800
1998-067XJ              
1 65730U 98067XJ  25336.82362581  .06330363  11931-4  22859-2 0  9996
2 65730  51.6061 180.4655 0010114 256.3912 103.5981 16.23931094 11687
1998-067XK              
1 65731U 98067XK  25337.85642202  .00126041  00000+0  13143-2 0  9998
2 65731  51.6280 182.2290 0005904 193.4783 166.6055 15.63596152 11759
RSP-03                  
1 65732U 98067XL  25337.93967648  .00159324  00000+0  15089-2 0  9993
2 65732  51.6257 181.2782 0006714 196.8829 163.1944 15.65891812 11782
GHS-01                  
1 65733U 98067XM  25337.92076774  .00238165  00000+0  18487-2 0  9990
2 65733  51.6271 180.4028 0007009 220.9221 139.1251 15.70494881 11792
YOTSUBA-KULOVER         
1 65941U 98067XN  25337.86489081  .00092779  00000+0  12115-2 0  9994
2 65941  51.6280 184.5321 0002183 175.1135 184.9878 15.57896087  8470
BOTAN                   
1 65942U 98067XP  25338.27186588  .00160832  00000+0  18697-2 0  9994
2 65942  51.6276 182.0008 0004198 178.1888 181.9121 15.60670487  8541
E-KAGAKU-1              
1 65943U 98067XQ  25336.90248775  .00073283  00000+0  96702-3 0  9997
2 65943  51.6296 189.3580 0003520 147.4331 212.6879 15.57714998  8329
HRC MONOBLOCK CAMERA    
1 66052U 98067XR  25338.28966841  .00060423  00000+0  94005-3 0  9999
2 66052  51.6291 183.6143 0004316 150.6108 209.5126 15.53318158  7525
HTV-X1                  
1 66174U 25241A   25338.09188027  .00015824  00000+0  29177-3 0  9992
2 66174  51.6302 185.2932 0003628 200.9086 159.1754 15.49293095   512
