CCSDS_OMM_VERS = 2.0
CREATION_DATE  = 
ORIGINATOR     = 

OBJECT_NAME    = PROGRESS-MS 32
OBJECT_ID      = 2025-204A
CENTER_NAME    = EARTH
REF_FRAME      = TEME
TIME_SYSTEM    = UTC
MEAN_ELEMENT_THEORY = SGP/SGP4

EPOCH          = 2025-12-04T02:12:18.455328
MEAN_MOTION    = 15.49293095
ECCENTRICITY   = .00036281
INCLINATION    = 51.6302
RA_OF_ASC_NODE = 185.2932
ARG_OF_PERICENTER = 200.9086
MEAN_ANOMALY   = 159.1754

EPHEMERIS_TYPE = 0
CLASSIFICATION_TYPE = U
NORAD_CAT_ID   = 65586
ELEMENT_SET_NO = 999
REV_AT_EPOCH   = 27
BSTAR          = .29177423E-3
MEAN_MOTION_DOT = .15824E-3
MEAN_MOTION_DDOT = 0

CCSDS_OMM_VERS = 2.0
CREATION_DATE  = 
ORIGINATOR     = 

OBJECT_NAME    = CYGNUS NG-23
OBJECT_ID      = 2025-208A
CENTER_NAME    = EARTH
REF_FRAME      = TEME
TIME_SYSTEM    = UTC
MEAN_ELEMENT_THEORY = SGP/SGP4

EPOCH          = 2025-12-04T02:12:18.455328
MEAN_MOTION    = 15.49293095
ECCENTRICITY   = .00036281
INCLINATION    = 51.6302
RA_OF_ASC_NODE = 185.2932
ARG_OF_PERICENTER = 200.9086
MEAN_ANOMALY   = 159.1754

EPHEMERIS_TYPE = 0
CLASSIFICATION_TYPE = U
NORAD_CAT_ID   = 65616
ELEMENT_SET_NO = 999
REV_AT_EPOCH   = 22
BSTAR          = .29177423E-3
MEAN_MOTION_DOT = .15824E-3
MEAN_MOTION_DDOT = 0

CCSDS_OMM_VERS = 2.0
CREATION_DATE  = 
ORIGINATOR     = 

OBJECT_NAME    = DRAGONFLY
OBJECT_ID      = 1998-067XH
CENTER_NAME    = EARTH
REF_FRAME      = TEME
TIME_SYSTEM    = UTC
MEAN_ELEMENT_THEORY = SGP/SGP4

EPOCH          = 2025-12-04T01:59:13.244352
MEAN_MOTION    = 15.68505337
ECCENTRICITY   = .00065465
INCLINATION    = 51.6245
RA_OF_ASC_NODE = 179.9790
ARG_OF_PERICENTER = 222.4541
MEAN_ANOMALY   = 137.5950

EPHEMERIS_TYPE = 0
CLASSIFICATION_TYPE = U
NORAD_CAT_ID   = 65729
ELEMENT_SET_NO = 999
REV_AT_EPOCH   = 1180
BSTAR          = .1745531E-2
MEAN_MOTION_DOT = .206221E-2
MEAN_MOTION_DDOT = 0

CCSDS_OMM_VERS = 2.0
CREATION_DATE  = 
ORIGINATOR     = 

OBJECT_NAME    = 1998-067XJ
OBJECT_ID      = 1998-067XJ
CENTER_NAME    = EARTH
REF_FRAME      = TEME
TIME_SYSTEM    = UTC
MEAN_ELEMENT_THEORY = SGP/SGP4

EPOCH          = 2025-12-02T19:46:01.269984
MEAN_MOTION    = 16.23931094
ECCENTRICITY   = .00101147
INCLINATION    = 51.6061
RA_OF_ASC_NODE = 180.4655
ARG_OF_PERICENTER = 256.3912
MEAN_ANOMALY   = 103.5981

EPHEMERIS_TYPE = 0
CLASSIFICATION_TYPE = U
NORAD_CAT_ID   = 65730
ELEMENT_SET_NO = 999
REV_AT_EPOCH   = 1168
BSTAR          = .2285911E-2
MEAN_MOTION_DOT = .6330363E-1
MEAN_MOTION_DDOT = .11931217E-4

CCSDS_OMM_VERS = 2.0
CREATION_DATE  = 
ORIGINATOR     = 

OBJECT_NAME    = 1998-067XK
OBJECT_ID      = 1998-067XK
CENTER_NAME    = EARTH
REF_FRAME      = TEME
TIME_SYSTEM    = UTC
MEAN_ELEMENT_THEORY = SGP/SGP4

EPOCH          = 2025-12-03T20:33:14.862528
MEAN_MOTION    = 15.63596152
ECCENTRICITY   = .00059045
INCLINATION    = 51.6280
RA_OF_ASC_NODE = 182.2290
ARG_OF_PERICENTER = 193.4783
MEAN_ANOMALY   = 166.6055

EPHEMERIS_TYPE = 0
CLASSIFICATION_TYPE = U
NORAD_CAT_ID   = 65731
ELEMENT_SET_NO = 999
REV_AT_EPOCH   = 1175
BSTAR          = .13142835E-2
MEAN_MOTION_DOT = .126041E-2
MEAN_MOTION_DDOT = 0

CCSDS_OMM_VERS = 2.0
CREATION_DATE  = 
ORIGINATOR     = 

OBJECT_NAME    = RSP-03
OBJECT_ID      = 1998-067XL
CENTER_NAME    = EARTH
REF_FRAME      = TEME
TIME_SYSTEM    = UTC
MEAN_ELEMENT_THEORY = SGP/SGP4

EPOCH          = 2025-12-03T22:33:08.047872
MEAN_MOTION    = 15.65891812
ECCENTRICITY   = .00067144
INCLINATION    = 51.6257
RA_OF_ASC_NODE = 181.2782
ARG_OF_PERICENTER = 196.8829
MEAN_ANOMALY   = 163.1944

EPHEMERIS_TYPE = 0
CLASSIFICATION_TYPE = U
NORAD_CAT_ID   = 65732
ELEMENT_SET_NO = 999
REV_AT_EPOCH   = 1178
BSTAR          = .15088651E-2
MEAN_MOTION_DOT = .159324E-2
MEAN_MOTION_DDOT = 0

CCSDS_OMM_VERS = 2.0
CREATION_DATE  = 
ORIGINATOR     = 

OBJECT_NAME    = GHS-01
OBJECT_ID      = 1998-067XM
CENTER_NAME    = EARTH
REF_FRAME      = TEME
TIME_SYSTEM    = UTC
MEAN_ELEMENT_THEORY = SGP/SGP4

EPOCH          = 2025-12-03T22:05:54.332736
MEAN_MOTION    = 15.70494881
ECCENTRICITY   = .0007009
INCLINATION    = 51.6271
RA_OF_ASC_NODE = 180.4028
ARG_OF_PERICENTER = 220.9221
MEAN_ANOMALY   = 139.1251

EPHEMERIS_TYPE = 0
CLASSIFICATION_TYPE = U
NORAD_CAT_ID   = 65733
ELEMENT_SET_NO = 999
REV_AT_EPOCH   = 1179
BSTAR          = .1848703E-2
MEAN_MOTION_DOT = .238165E-2
MEAN_MOTION_DDOT = 0

CCSDS_OMM_VERS = 2.0
CREATION_DATE  = 
ORIGINATOR     = 

OBJECT_NAME    = YOTSUBA-KULOVER
OBJECT_ID      = 1998-067XN
CENTER_NAME    = EARTH
REF_FRAME      = TEME
TIME_SYSTEM    = UTC
MEAN_ELEMENT_THEORY = SGP/SGP4

EPOCH          = 2025-12-03T20:45:26.565984
MEAN_MOTION    = 15.57896087
ECCENTRICITY   = .00021831
INCLINATION    = 51.6280
RA_OF_ASC_NODE = 184.5321
ARG_OF_PERICENTER = 175.1135
MEAN_ANOMALY   = 184.9878

EPHEMERIS_TYPE = 0
CLASSIFICATION_TYPE = U
NORAD_CAT_ID   = 65941
ELEMENT_SET_NO = 999
REV_AT_EPOCH   = 847
BSTAR          = .12114589E-2
MEAN_MOTION_DOT = .92779E-3
MEAN_MOTION_DDOT = 0

CCSDS_OMM_VERS = 2.0
CREATION_DATE  = 
ORIGINATOR     = 

OBJECT_NAME    = BOTAN
OBJECT_ID      = 1998-067XP
CENTER_NAME    = EARTH
REF_FRAME      = TEME
TIME_SYSTEM    = UTC
MEAN_ELEMENT_THEORY = SGP/SGP4

EPOCH          = 2025-12-04T06:31:29.212032
MEAN_MOTION    = 15.60670487
ECCENTRICITY   = .00041989
INCLINATION    = 51.6276
RA_OF_ASC_NODE = 182.0008
ARG_OF_PERICENTER = 178.1888
MEAN_ANOMALY   = 181.9121

EPHEMERIS_TYPE = 0
CLASSIFICATION_TYPE = U
NORAD_CAT_ID   = 65942
ELEMENT_SET_NO = 999
REV_AT_EPOCH   = 854
BSTAR          = .18696572E-2
MEAN_MOTION_DOT = .160832E-2
MEAN_MOTION_DDOT = 0

CCSDS_OMM_VERS = 2.0
CREATION_DATE  = 
ORIGINATOR     = 

OBJECT_NAME    = E-KAGAKU-1
OBJECT_ID      = 1998-067XQ
CENTER_NAME    = EARTH
REF_FRAME      = TEME
TIME_SYSTEM    = UTC
MEAN_ELEMENT_THEORY = SGP/SGP4

EPOCH          = 2025-12-02T21:39:34.941600
MEAN_MOTION    = 15.57714998
ECCENTRICITY   = .00035202
INCLINATION    = 51.6296
RA_OF_ASC_NODE = 189.3580
ARG_OF_PERICENTER = 147.4331
MEAN_ANOMALY   = 212.6879

EPHEMERIS_TYPE = 0
CLASSIFICATION_TYPE = U
NORAD_CAT_ID   = 65943
ELEMENT_SET_NO = 999
REV_AT_EPOCH   = 832
BSTAR          = .96701912E-3
MEAN_MOTION_DOT = .73283E-3
MEAN_MOTION_DDOT = 0

CCSDS_OMM_VERS = 2.0
CREATION_DATE  = 
ORIGINATOR     = 

OBJECT_NAME    = HRC MONOBLOCK CAMERA
OBJECT_ID      = 1998-067XR
CENTER_NAME    = EARTH
REF_FRAME      = TEME
TIME_SYSTEM    = UTC
MEAN_ELEMENT_THEORY = SGP/SGP4

EPOCH          = 2025-12-04T06:57:07.350624
MEAN_MOTION    = 15.53318158
ECCENTRICITY   = .00043168
INCLINATION    = 51.6291
RA_OF_ASC_NODE = 183.6143
ARG_OF_PERICENTER = 150.6108
MEAN_ANOMALY   = 209.5126

EPHEMERIS_TYPE = 0
CLASSIFICATION_TYPE = U
NORAD_CAT_ID   = 66052
ELEMENT_SET_NO = 999
REV_AT_EPOCH   = 752
BSTAR          = .94005193E-3
MEAN_MOTION_DOT = .60423E-3
MEAN_MOTION_DDOT = 0

CCSDS_OMM_VERS = 2.0
CREATION_DATE  = 
ORIGINATOR     = 

OBJECT_NAME    = HTV-X1
OBJECT_ID      = 2025-241A
CENTER_NAME    = EARTH
REF_FRAME      = TEME
TIME_SYSTEM    = UTC
MEAN_ELEMENT_THEORY = SGP/SGP4

EPOCH          = 2025-12-04T02:12:18.455328
MEAN_MOTION    = 15.49293095
ECCENTRICITY   = .00036281
INCLINATION    = 51.6302
RA_OF_ASC_NODE = 185.2932
ARG_OF_PERICENTER = 200.9086
MEAN_ANOMALY   = 159.1754

EPHEMERIS_TYPE = 0
CLASSIFICATION_TYPE = U
NORAD_CAT_ID   = 66174
ELEMENT_SET_NO = 999
REV_AT_EPOCH   = 51
BSTAR          = .29177423E-3
MEAN_MOTION_DOT = .15824E-3
MEAN_MOTION_DDOT = 0

